ONEWEB-0706             
1 61611U 24188T   25150.42626361  .00000639  00000+0  17954-2 0  9996
2 61611  87.8821 112.5832 0002494  85.9022 274.2391 13.10371610 31362
ONEWEB-0707             
1 61612U 24188U   25150.43869631  .00000133  00000+0  34423-3 0  9997
2 61612  87.8801 112.5567 0002656  89.2237 270.9195 13.10368754 31237
ONEWEB-0708             
1 61613U 24188V   25150.38058766 -.00000582  00000+0 -17027-2 0  9991
2 61613  87.8860 112.5659 0002886  80.1815 279.9638 13.10372479 31434
